GLOBALSTAR M023         
1 25621U 99004A   25335.18304463 -.00000109  00000+0 -27513-4 0  9998
2 25621  52.0114 264.9318 0010214 132.5998   7.2233 12.62509678236823
GLOBALSTAR M040         
1 25622U 99004B   25335.22958865 -.00000075  00000+0  16307-3 0  9994
2 25622  51.9921 269.1909 0001535  44.6537 124.9263 12.62023930236348
GLOBALSTAR M036         
1 25623U 99004C   25335.02411318 -.00000048  00000+0  50051-3 0  9994
2 25623  51.9932 160.5680 0010883  15.6979 158.8076 11.86618005198786
GLOBALSTAR M038         
1 25624U 99004D   25335.22310757 -.00000074  00000+0  17453-3 0  9990
2 25624  51.9990 310.5234 0002188  41.6366 332.1366 12.32536601222972
GLOBALSTAR M022         
1 25649U 99012A   25335.08882133 -.00000077  00000+0  11866-3 0  9997
2 25649  52.0014 197.1847 0003287 123.8026  35.2079 12.02507392196451
GLOBALSTAR M041         
1 25650U 99012B   25334.68668177 -.00000085  00000+0  49209-5 0  9997
2 25650  52.0023  84.8021 0000439 278.4445  81.6342 11.96681184198215
GLOBALSTAR M046         
1 25651U 99012C   25335.23348843  .00000017  00000+0  11679-2 0  9996
2 25651  52.0031 140.8262 0001525 191.3468 339.7736 12.09418206203871
GLOBALSTAR M037         
1 25652U 99012D   25335.22527470 -.00000080  00000+0  13488-3 0  9993
2 25652  52.0027  35.3589 0002205 185.3027 210.2073 12.62456980232371
